BEIDOU-3S IGSO-1S       
1 40549U 15019A   26183.80025122 -.00000190  00000+0  00000+0 0  9997
2 40549  49.1798 295.2769 0076860 219.1125 144.2493  1.00680073 41232
NAVSTAR 74 (USA 262)    
1 40730U 15033A   26189.16213804 -.00000003  00000+0  00000+0 0  9999
2 40730  53.9664 266.2211 0115246  30.2795 330.4465  2.00555133 80416
BEIDOU-3S M2S           
1 40748U 15037A   26189.80135499 -.00000066  00000+0  00000+0 0  9995
2 40748  54.8502 301.3028 0009251 257.3579 102.5592  1.86232305 74523
BEIDOU-3S M1S           
1 40749U 15037B   26189.46923661 -.00000065  00000+0  00000+0 0  9993
2 40749  54.8472 301.3010 0002900  63.4751 296.5756  1.86254806 74529
GSAT0206 (GALILEO 10)   
1 40890U 15045B   26188.98768849  .00000082  00000+0  00000+0 0  9998
2 40890  54.9404 221.0297 0001927 331.1596  28.9023  1.70473579 67391
BEIDOU-3S IGSO-2S       
1 40938U 15053A   26189.66207360 -.00000108  00000+0  00000+0 0  9992
2 40938  49.1885 258.5272 0066044 192.8213 167.4709  1.00254954 39576
NAVSTAR 75 (USA 265)    
1 41019U 15062A   26189.21731243 -.00000051  00000+0  00000+0 0  9993
2 41019  56.9736  30.0016 0112566 230.9199 128.1234  2.00566927 78257
GSAT-15                 
1 41028U 15065A   26189.91850285 -.00000244  00000+0  00000+0 0  9995
2 41028   0.0148 297.8764 0003777 150.7883 262.3666  1.00272038 39016
GSAT0209 (GALILEO 12)   
1 41174U 15079A   26189.15594789 -.00000008  00000+0  00000+0 0  9990
2 41174  55.8390 100.6867 0004997 350.6288   9.3765  1.70473596 65135
GSAT0208 (GALILEO 11)   
1 41175U 15079B   26189.37634046 -.00000009  00000+0  00000+0 0  9997
2 41175  55.8379 100.6775 0004423  15.9812 344.0466  1.70473357 65557
IRNSS-1E                
1 41241U 16003A   26189.78864986 -.00000309  00000+0  00000+0 0  9995
2 41241  33.2798  59.4366 0019240 178.8165  84.1076  1.00268624 38298
NAVSTAR 76 (USA 266)    
1 41328U 16007A   26189.80752889 -.00000030  00000+0  00000+0 0  9997
2 41328  55.5370  88.6024 0096602 247.6357 111.3718  2.00575699 76277
COSMOS 2514 [GLONASS-M] 
1 41330U 16008A   26189.87114342 -.00000055  00000+0  00000+0 0  9991
2 41330  65.0074 312.2627 0012097 200.4182 159.5437  2.13102560 81085
BEIDOU-2 IGSO-6         
1 41434U 16021A   26177.11016981 -.00000145  00000+0  00000+0 0  9995
2 41434  60.2385  37.9495 0057558 231.0163 137.2672  1.00258926 37578
IRNSS-1G                
1 41469U 16027A   26189.63725388 -.00000323  00000+0  00000+0 0  9995
2 41469   5.2469  96.9783 0005997   8.4226 180.2448  1.00274494 37396
GSAT0211 (GALILEO 14)   
1 41549U 16030A   26187.74023406  .00000078  00000+0  00000+0 0  9996
2 41549  55.0912 221.1568 0003151 320.2571  39.7906  1.70473798 63001
GSAT0210 (GALILEO 13)   
1 41550U 16030B   26188.58407304  .00000081  00000+0  00000+0 0  9998
2 41550  55.0891 221.1315 0007820 257.5040 102.4802  1.70473798 63013
EUTELSAT 117 WEST B     
1 41589U 16038B   26189.69361255  .00000003  00000+0  00000+0 0  9999
2 41589   0.0042 192.7787 0000254 262.1262 324.4365  1.00272299 36871
GSAT0207 (GALILEO 15)   
1 41859U 16069A   26187.10285798  .00000000  00000+0  00000+0 0  9991
2 41859  55.5088 100.5629 0004433 341.1065  18.8968  1.70473349 59728
GSAT0212 (GALILEO 16)   
1 41860U 16069B   26188.12942102 -.00000003  00000+0  00000+0 0  9999
2 41860  55.5076 100.5296 0004380   9.6218 350.4046  1.70473650 59990
GSAT0213 (GALILEO 17)   
1 41861U 16069C   26187.32341799  .00000000  00000+0  00000+0 0  9992
2 41861  55.5092 100.5598 0004628 315.4701  44.5123  1.70474232 59842
GSAT0214 (GALILEO 18)   
1 41862U 16069D   26187.46967801 -.00000001  00000+0  00000+0 0  9998
2 41862  55.5080 100.5485 0003807 326.3091  33.6861  1.70473830 59971
SES-15                  
1 42709U 17026A   26189.69073153  .00000075  00000+0  00000+0 0  9998
2 42709   0.0243 327.5355 0000429 139.8971 298.7055  1.00267075  7647
QZS-2 (MICHIBIKI-2)     
1 42738U 17028A   26189.46758700 -.00000096  00000+0  00000+0 0  9999
2 42738  39.3957 242.8399 0758144 269.5205  84.7029  1.00278468  7842
QZS-3 (MICHIBIKI-3)     
1 42917U 17048A   26189.88115892 -.00000333  00000+0  00000+0 0  9999
2 42917   0.0767 220.5466 0002569 260.9279 249.5570  1.00275548 32477
COSMOS 2522 [GLONASS-M] 
1 42939U 17055A   26189.23956900  .00000125  00000+0  00000+0 0  9991
2 42939  64.0805 191.1677 0010937 240.8156 119.1060  2.13101984 68427
QZS-4 (MICHIBIKI-4)     
1 42965U 17062A   26189.31127122 -.00000310  00000+0  00000+0 0  9990
2 42965  40.0964 343.2180 0747319 268.4114 285.3906  1.00292396 32010
BEIDOU-3 M1             
1 43001U 17069A   26189.07433103 -.00000045  00000+0  00000+0 0  9996
2 43001  56.7094  62.3976 0009504 327.5124  32.4908  1.86231373 58997
GSAT0215 (GALILEO 19)   
1 43055U 17079A   26189.71905973  .00000086  00000+0  00000+0 0  9990
2 43055  55.0687 220.9138 0003601 268.0155  92.0179  1.70474306 53358
